EUTELSAT 139 WEST A     
1 28187U 04008A   26013.53130972  .00000087  00000+0  00000+0 0  9993
2 28187   5.4330  73.8770 0019385 202.9205 248.4698  1.00554299 79801
EUTELSAT 174A           
1 28924U 05052A   26014.34558472  .00000025  00000+0  00000+0 0  9993
2 28924   3.8291  78.4649 0005947 221.1591 112.6441  1.00275325 50788
EUTELSAT 33F            
1 29270U 06032A   26014.59483768  .00000173  00000+0  00000+0 0  9993
2 29270   1.2652  84.0710 0003408 217.0574  60.1283  1.00272712 45763
EUTELSAT HOTBIRD 13C    
1 33459U 08065A   26014.50704376 -.00000266  00000+0  00000+0 0  9991
2 33459   2.5556  81.0602 0002995 221.6415 303.4924  1.00271798 45809
EUTELSAT 36B            
1 36101U 09065A   26014.59830437  .00000131  00000+0  00000+0 0  9996
2 36101   0.1048  66.5597 0005340 230.6428  82.7514  1.00274365 59167
EUTELSAT KA-SAT 9A      
1 37258U 10069A   26014.37608959  .00000080  00000+0  00000+0 0  9997
2 37258   0.0497 344.7671 0001762 189.6756  83.7582  1.00268595 42462
EUTELSAT 7 WEST A       
1 37816U 11051A   26014.58686429 -.00000041  00000+0  00000+0 0  9998
2 37816   0.0616   0.0619 0004101 238.3502  79.5868  1.00271756 52330
EUTELSAT 16A            
1 37836U 11057A   26014.59145766  .00000124  00000+0  00000+0 0  9992
2 37836   0.0548 349.7810 0005517 307.5909  45.6152  1.00275419  5781
